{
  "type": "FeatureCollection",
  "features": [
    {
      "type": "Feature",
      "properties": {
        "norad_id": 30182,
        "name": "FENGYUN 1C DEB",
        "group": "fengyun-1c-debris",
        "lat": 51.449199785561696,
        "lon": -117.50997550188143,
        "alt_km": 943.6120854690234,
        "timestamp": "2025-12-26T03:50:12.367746+00:00",
        "meta_object_name": "FENGYUN 1C DEB",
        "meta_object_id": "1999-025UP",
        "meta_epoch": "2025-12-25T01:43:58.361664",
        "meta_mean_motion": 13.96460953,
        "meta_eccentricity": 0.00744211,
        "meta_inclination": 99.0638,
        "meta_ra_of_asc_node": 49.8638,
        "meta_arg_of_pericenter": 348.8987,
        "meta_mean_anomaly": 73.1569,
        "meta_ephemeris_type": 0,
        "meta_classification_type": "U",
        "meta_norad_cat_id": 30182,
        "meta_element_set_no": 999,
        "meta_rev_at_epoch": 96480,
        "meta_bstar": 0.00016354909,
        "meta_mean_motion_dot": 1.87e-06,
        "meta_mean_motion_ddot": 0,
        "tle_line1": "1 30182U 99025UP  25359.07220326  .00000187  00000+0  16355-3 0  9993",
        "tle_line2": "2 30182  99.0638  49.8638 0074421 348.8987  73.1569 13.96460953964808"
      },
      "geometry": {
        "type": "Point",
        "coordinates": [
          -117.50997550188143,
          51.449199785561696
        ]
      }
    },
    {
      "type": "Feature",
      "properties": {
        "norad_id": 30183,
        "name": "FENGYUN 1C DEB",
        "group": "fengyun-1c-debris",
        "lat": -8.087563047416507,
        "lon": 43.403437268414535,
        "alt_km": 868.1512291253293,
        "timestamp": "2025-12-26T03:50:12.367757+00:00",
        "meta_object_name": "FENGYUN 1C DEB",
        "meta_object_id": "1999-025UQ",
        "meta_epoch": "2025-12-25T16:34:19.359840",
        "meta_mean_motion": 14.12687122,
        "meta_eccentricity": 0.0026515,
        "meta_inclination": 98.7873,
        "meta_ra_of_asc_node": 41.6836,
        "meta_arg_of_pericenter": 215.9455,
        "meta_mean_anomaly": 270.0837,
        "meta_ephemeris_type": 0,
        "meta_classification_type": "U",
        "meta_norad_cat_id": 30183,
        "meta_element_set_no": 999,
        "meta_rev_at_epoch": 97326,
        "meta_bstar": 0.00051846,
        "meta_mean_motion_dot": 9.21e-06,
        "meta_mean_motion_ddot": 0,
        "tle_line1": "1 30183U 99025UQ  25359.69050185  .00000921  00000+0  51846-3 0  9996",
        "tle_line2": "2 30183  98.7873  41.6836 0026515 215.9455 270.0837 14.12687122973265"
      },
      "geometry": {
        "type": "Point",
        "coordinates": [
          43.403437268414535,
          -8.087563047416507
        ]
      }
    },
    {
      "type": "Feature",
      "properties": {
        "norad_id": 30191,
        "name": "FENGYUN 1C DEB",
        "group": "fengyun-1c-debris",
        "lat": -12.917858181954353,
        "lon": -109.49500715037547,
        "alt_km": 579.0032981213035,
        "timestamp": "2025-12-26T03:50:12.367767+00:00",
        "meta_object_name": "FENGYUN 1C DEB",
        "meta_object_id": "1999-025UY",
        "meta_epoch": "2025-12-25T11:00:54.156096",
        "meta_mean_motion": 14.78249345,
        "meta_eccentricity": 0.0097098,
        "meta_inclination": 98.7742,
        "meta_ra_of_asc_node": 71.7719,
        "meta_arg_of_pericenter": 223.0873,
        "meta_mean_anomaly": 202.5721,
        "meta_ephemeris_type": 0,
        "meta_classification_type": "U",
        "meta_norad_cat_id": 30191,
        "meta_element_set_no": 999,
        "meta_rev_at_epoch": 463,
        "meta_bstar": 0.0013566,
        "meta_mean_motion_dot": 0.00010601,
        "meta_mean_motion_ddot": 0,
        "tle_line1": "1 30191U 99025UY  25359.45896014  .00010601  00000+0  13566-2 0  9990",
        "tle_line2": "2 30191  98.7742  71.7719 0097098 223.0873 202.5721 14.78249345  4632"
      },
      "geometry": {
        "type": "Point",
        "coordinates": [
          -109.49500715037547,
          -12.917858181954353
        ]
      }
    },
    {
      "type": "Feature",
      "properties": {
        "norad_id": 30193,
        "name": "FENGYUN 1C DEB",
        "group": "fengyun-1c-debris",
        "lat": -49.484915396150356,
        "lon": -80.73154881300947,
        "alt_km": 796.0211751262696,
        "timestamp": "2025-12-26T03:50:12.367778+00:00",
        "meta_object_name": "FENGYUN 1C DEB",
        "meta_object_id": "1999-025VA",
        "meta_epoch": "2025-12-25T05:33:36.211104",
        "meta_mean_motion": 14.49184489,
        "meta_eccentricity": 0.0107624,
        "meta_inclination": 98.7566,
        "meta_ra_of_asc_node": 267.914,
        "meta_arg_of_pericenter": 95.6962,
        "meta_mean_anomaly": 55.1793,
        "meta_ephemeris_type": 0,
        "meta_classification_type": "U",
        "meta_norad_cat_id": 30193,
        "meta_element_set_no": 999,
        "meta_rev_at_epoch": 99347,
        "meta_bstar": 0.00074055,
        "meta_mean_motion_dot": 2.984e-05,
        "meta_mean_motion_ddot": 0,
        "tle_line1": "1 30193U 99025VA  25359.23166911  .00002984  00000+0  74055-3 0  9990",
        "tle_line2": "2 30193  98.7566 267.9140 0107624  95.6962  55.1793 14.49184489993479"
      },
      "geometry": {
        "type": "Point",
        "coordinates": [
          -80.73154881300947,
          -49.484915396150356
        ]
      }
    },
    {
      "type": "Feature",
      "properties": {
        "norad_id": 30196,
        "name": "FENGYUN 1C DEB",
        "group": "fengyun-1c-debris",
        "lat": 52.96122765213554,
        "lon": 80.79951727532979,
        "alt_km": 746.4826789125473,
        "timestamp": "2025-12-26T03:50:12.367788+00:00",
        "meta_object_name": "FENGYUN 1C DEB",
        "meta_object_id": "1999-025VD",
        "meta_epoch": "2025-12-25T19:43:37.191072",
        "meta_mean_motion": 14.25851394,
        "meta_eccentricity": 0.0086402,
        "meta_inclination": 98.6394,
        "meta_ra_of_asc_node": 92.0897,
        "meta_arg_of_pericenter": 25.3713,
        "meta_mean_anomaly": 94.5361,
        "meta_ephemeris_type": 0,
        "meta_classification_type": "U",
        "meta_norad_cat_id": 30196,
        "meta_element_set_no": 999,
        "meta_rev_at_epoch": 98551,
        "meta_bstar": 5.6622e-05,
        "meta_mean_motion_dot": 9.7e-07,
        "meta_mean_motion_ddot": 0,
        "tle_line1": "1 30196U 99025VD  25359.82195823  .00000097  00000+0  56622-4 0  9996",
        "tle_line2": "2 30196  98.6394  92.0897 0086402  25.3713  94.5361 14.25851394985514"
      },
      "geometry": {
        "type": "Point",
        "coordinates": [
          80.79951727532979,
          52.96122765213554
        ]
      }
    },
    {
      "type": "Feature",
      "properties": {
        "norad_id": 30197,
        "name": "FENGYUN 1C DEB",
        "group": "fengyun-1c-debris",
        "lat": 80.37035744775088,
        "lon": -142.04374946612174,
        "alt_km": 758.5667635327827,
        "timestamp": "2025-12-26T03:50:12.367798+00:00",
        "meta_object_name": "FENGYUN 1C DEB",
        "meta_object_id": "1999-025VE",
        "meta_epoch": "2025-12-25T19:23:12.211008",
        "meta_mean_motion": 14.37247391,
        "meta_eccentricity": 0.0057426,
        "meta_inclination": 98.9396,
        "meta_ra_of_asc_node": 285.6727,
        "meta_arg_of_pericenter": 175.5577,
        "meta_mean_anomaly": 250.8411,
        "meta_ephemeris_type": 0,
        "meta_classification_type": "U",
        "meta_norad_cat_id": 30197,
        "meta_element_set_no": 999,
        "meta_rev_at_epoch": 98674,
        "meta_bstar": 0.00075051,
        "meta_mean_motion_dot": 2.232e-05,
        "meta_mean_motion_ddot": 0,
        "tle_line1": "1 30197U 99025VE  25359.80778022  .00002232  00000+0  75051-3 0  9992",
        "tle_line2": "2 30197  98.9396 285.6727 0057426 175.5577 250.8411 14.37247391986740"
      },
      "geometry": {
        "type": "Point",
        "coordinates": [
          -142.04374946612174,
          80.37035744775088
        ]
      }
    },
    {
      "type": "Feature",
      "properties": {
        "norad_id": 30198,
        "name": "FENGYUN 1C DEB",
        "group": "fengyun-1c-debris",
        "lat": -41.161675422386296,
        "lon": 138.71650243130145,
        "alt_km": 801.9546154636973,
        "timestamp": "2025-12-26T03:50:12.367809+00:00",
        "meta_object_name": "FENGYUN 1C DEB",
        "meta_object_id": "1999-025VF",
        "meta_epoch": "2025-12-25T14:54:13.860000",
        "meta_mean_motion": 14.50553085,
        "meta_eccentricity": 0.0106879,
        "meta_inclination": 98.4484,
        "meta_ra_of_asc_node": 130.7097,
        "meta_arg_of_pericenter": 159.2407,
        "meta_mean_anomaly": 226.3853,
        "meta_ephemeris_type": 0,
        "meta_classification_type": "U",
        "meta_norad_cat_id": 30198,
        "meta_element_set_no": 999,
        "meta_rev_at_epoch": 98694,
        "meta_bstar": 0.0021511,
        "meta_mean_motion_dot": 9.033e-05,
        "meta_mean_motion_ddot": 0,
        "tle_line1": "1 30198U 99025VF  25359.62099375  .00009033  00000+0  21511-2 0  9997",
        "tle_line2": "2 30198  98.4484 130.7097 0106879 159.2407 226.3853 14.50553085986947"
      },
      "geometry": {
        "type": "Point",
        "coordinates": [
          138.71650243130145,
          -41.161675422386296
        ]
      }
    }
  ]
}